SPAWAR-CAL-O            
1 43766U 18099J   26068.73975788  .00021069  00000+0  69663-3 0  9999
2 43766  97.4452 132.0993 0007239 285.0670  74.9770 15.31356755398280
STARLINK-35425          
1 65874U 25223W   26068.88362698  .00032871  00000+0  11164-2 0  9991
2 65874  53.1607 293.3930 0000546 104.8489 255.2572 15.30220177 24239
